{
"type": "FeatureCollection",
"name": "icefall_routes",
"crs": { "type": "name", "properties": { "name": "urn:ogc:def:crs:OGC:1.3:CRS84" } },
"features": [
{ "type": "Feature", "properties": { "uid": 1, "name": "Mannerschnitte", "dem_source": "DOM_Oetztal_50cm", "line_status": "ok", "route_confidence": 1.0001235113422187, "support_score": 78.995247208641388, "collapse_risk_score": 21.004752791358612 }, "geometry": { "type": "LineString", "coordinates": [ [ 10.914524460142117, 47.187857729263072 ], [ 10.914416741675538, 47.187851579746436 ], [ 10.914398534526839, 47.187894344308212 ], [ 10.914286506087631, 47.187899407101803 ], [ 10.914253244785666, 47.187908788348302 ], [ 10.914162233242511, 47.187885673046175 ], [ 10.914102356504802, 47.187900336199988 ], [ 10.913978214801547, 47.187894569557166 ], [ 10.913943189292716, 47.187946113281001 ], [ 10.913849217266272, 47.187978069143561 ], [ 10.913724552970113, 47.187988352428391 ], [ 10.913699884184425, 47.187992314312616 ], [ 10.913718718508138, 47.188005711646319 ], [ 10.913605826262071, 47.18799331441781 ], [ 10.913535200938089, 47.187966159807658 ], [ 10.913422628657756, 47.187975721923493 ], [ 10.913311289802657, 47.187989775141652 ], [ 10.913277543276221, 47.187984563833119 ], [ 10.913301263983522, 47.187975209011455 ], [ 10.913175099355815, 47.187967974005858 ], [ 10.913061266456676, 47.187959502381915 ], [ 10.912973355945178, 47.187937141995668 ], [ 10.912988087983512, 47.18793012206703 ], [ 10.912924780205408, 47.187910767906374 ], [ 10.912799133141871, 47.187897908098009 ], [ 10.912735550148515, 47.187952197222451 ], [ 10.912733599486259, 47.187971646689668 ], [ 10.912698390438022, 47.187961872791107 ], [ 10.912704691904779, 47.187956849942289 ] ] } },
{ "type": "Feature", "properties": { "uid": 2, "name": "Baselayer", "dem_source": "DOM_Oetztal_50cm", "line_status": "ok", "route_confidence": 0.78698509157498986, "support_score": 53.370994142313187, "collapse_risk_score": 46.629005857686813 }, "geometry": { "type": "LineString", "coordinates": [ [ 10.921599166094268, 47.181480420356522 ], [ 10.921671463640525, 47.181537906906101 ], [ 10.921753863581699, 47.181602178540146 ], [ 10.921847846077716, 47.181665301410341 ], [ 10.921941828796516, 47.181728424201793 ], [ 10.922035811738098, 47.18179154691444 ], [ 10.922129794902457, 47.181854669548301 ], [ 10.922223778289604, 47.181917792103405 ], [ 10.92231776189954, 47.181980914579725 ], [ 10.922420587680111, 47.182032119777709 ], [ 10.922520343005083, 47.182090190392209 ], [ 10.922641587013455, 47.182095734369319 ] ] } },
{ "type": "Feature", "properties": { "uid": 3, "name": "Zapfenstreich", "dem_source": "DOM_Oetztal_50cm", "line_status": "ok", "route_confidence": 0.97628708239315576, "support_score": 84.669057432306531, "collapse_risk_score": 15.330942567693469 }, "geometry": { "type": "LineString", "coordinates": [ [ 10.901993999210623, 47.181435008728755 ], [ 10.901992624157206, 47.181445360371235 ], [ 10.90196888216026, 47.181432641890616 ], [ 10.901967016029696, 47.181479146970517 ], [ 10.902011508523998, 47.181535409057815 ], [ 10.902056479426726, 47.181611226810176 ], [ 10.902055132206273, 47.181596480422137 ], [ 10.902076847324141, 47.181659248154652 ], [ 10.902102340281841, 47.181698281044909 ], [ 10.902096388059292, 47.181758906750545 ], [ 10.902105452033656, 47.181847875165758 ], [ 10.902131139133992, 47.181925321952313 ], [ 10.902129330437219, 47.182010011395946 ], [ 10.902140994660664, 47.18204776111191 ], [ 10.902164132642051, 47.182108521993179 ], [ 10.902217565058091, 47.182143618742323 ], [ 10.90223352033272, 47.182140959636897 ], [ 10.902219505062837, 47.182170983285104 ], [ 10.902248779637079, 47.182218469855975 ], [ 10.902219990547131, 47.182228835289102 ], [ 10.902234127468123, 47.182305447252077 ], [ 10.902240580822392, 47.182291974933314 ], [ 10.902328961913382, 47.182320928080337 ], [ 10.902321176790162, 47.182320799830208 ], [ 10.902325961731908, 47.182356934990963 ], [ 10.902266889475163, 47.182420567708242 ], [ 10.902228903788885, 47.182441370858207 ], [ 10.902229613100271, 47.182453371226046 ], [ 10.902260664160586, 47.182424580135716 ], [ 10.902255264002132, 47.182432147658318 ] ] } },
{ "type": "Feature", "properties": { "uid": 4, "name": "Zwei Welten", "dem_source": "DOM_Oetztal_50cm", "line_status": "ok", "route_confidence": 0.93998084221526368, "support_score": 75.453969831508303, "collapse_risk_score": 24.546030168491697 }, "geometry": { "type": "LineString", "coordinates": [ [ 10.900126918848215, 47.181408235447002 ], [ 10.900120202147781, 47.181412708800252 ], [ 10.900159298674719, 47.181398401723783 ], [ 10.900123709449025, 47.181429520921633 ], [ 10.900155127630674, 47.181455542648045 ], [ 10.900242364692094, 47.181451788790731 ], [ 10.900347219664756, 47.1814692351209 ], [ 10.900426751799859, 47.181510199997362 ], [ 10.900495250869337, 47.181507211587906 ], [ 10.900532610540242, 47.181493729658186 ], [ 10.900481060615196, 47.181501541215432 ], [ 10.900543413010046, 47.181494829369903 ], [ 10.900645023632412, 47.181531611900603 ], [ 10.900753298317223, 47.181491395841583 ], [ 10.900832288055165, 47.181521218289461 ], [ 10.900902350450419, 47.181552830876988 ], [ 10.901016135810671, 47.181550334362989 ], [ 10.901146363547477, 47.181544911138801 ], [ 10.901157080007003, 47.181532460848793 ], [ 10.901215267629281, 47.181498793117456 ], [ 10.901307258244399, 47.181493577702419 ], [ 10.901391754991838, 47.181499379297854 ], [ 10.901522345621254, 47.181495803824404 ], [ 10.901618934274635, 47.181481834843986 ], [ 10.90167042793972, 47.181518399052251 ], [ 10.901760370105674, 47.181509847461172 ], [ 10.901858164616396, 47.181521130713854 ], [ 10.901919230325955, 47.181478567885385 ], [ 10.901938193901092, 47.181451542055683 ], [ 10.901972798818591, 47.181466639985231 ], [ 10.901967306263307, 47.181428475449835 ], [ 10.902075462649151, 47.181392063449252 ], [ 10.902060453045531, 47.181389706188504 ], [ 10.902141569070546, 47.181379186266419 ], [ 10.902224406517609, 47.181361699878465 ], [ 10.902296798719721, 47.181375046219387 ] ] } },
{ "type": "Feature", "properties": { "uid": 6, "name": "Kalte Dusche", "dem_source": "DOM_Oetztal_50cm", "line_status": "ok", "route_confidence": 0.79014009462377466, "support_score": 85.017715049928086, "collapse_risk_score": 14.982284950071914 }, "geometry": { "type": "LineString", "coordinates": [ [ 10.919597138383001, 47.174555589136297 ], [ 10.919590558665758, 47.17456021493885 ], [ 10.919531219359474, 47.174614391507717 ], [ 10.919519307056643, 47.174668421413301 ], [ 10.919546450079295, 47.174683899794161 ], [ 10.919565721713655, 47.174698149294926 ], [ 10.919572284336109, 47.174695136263807 ] ] } },
{ "type": "Feature", "properties": { "uid": 7, "name": "Sibirien", "dem_source": "DOM_Oetztal_50cm", "line_status": "ok", "route_confidence": 1.0014473067713756, "support_score": 74.221409230200891, "collapse_risk_score": 25.778590769799109 }, "geometry": { "type": "LineString", "coordinates": [ [ 10.919610279598745, 47.174551024774047 ], [ 10.919529417905395, 47.174606992809728 ], [ 10.919416674196562, 47.174644246119215 ], [ 10.919354751544406, 47.174691746399468 ], [ 10.919381530319791, 47.174684066977115 ], [ 10.919279459694886, 47.174708448019999 ], [ 10.919200183299349, 47.17471502032204 ], [ 10.919142678712026, 47.174716246184424 ], [ 10.919062978397339, 47.174693231320099 ], [ 10.918974231736502, 47.174682784838801 ], [ 10.91888775143388, 47.174680630433613 ], [ 10.918764816889945, 47.174663265924771 ], [ 10.918682031180223, 47.174659189457948 ], [ 10.918626821902285, 47.174667679621784 ], [ 10.918498933041958, 47.174676790169933 ], [ 10.918392975576099, 47.174688115447914 ], [ 10.918267151957714, 47.174678954685447 ], [ 10.918184121044447, 47.174702197034051 ], [ 10.918057228038057, 47.174694178694089 ], [ 10.917992038491535, 47.17467169066002 ], [ 10.917955727018859, 47.174694362254293 ], [ 10.917843183602466, 47.174703928609169 ], [ 10.91772024933462, 47.174686562978216 ], [ 10.917650880897604, 47.174704904841008 ], [ 10.917524044261899, 47.174696553680967 ], [ 10.917395940851716, 47.174706198555924 ], [ 10.91734020026227, 47.174700062630265 ], [ 10.917316559510656, 47.174693108956141 ] ] } },
{ "type": "Feature", "properties": { "uid": 8, "name": "Vorsaison", "dem_source": "DOM_Oetztal_50cm", "line_status": "ok", "route_confidence": 0.79014009462377466, "support_score": 85.017715049928086, "collapse_risk_score": 14.982284950071914 }, "geometry": { "type": "LineString", "coordinates": [ [ 10.919597138383001, 47.174555589136297 ], [ 10.919590558665758, 47.17456021493885 ], [ 10.919531219359474, 47.174614391507717 ], [ 10.919519307056643, 47.174668421413301 ], [ 10.919546450079295, 47.174683899794161 ], [ 10.919565721713655, 47.174698149294926 ], [ 10.919572284336109, 47.174695136263807 ] ] } },
{ "type": "Feature", "properties": { "uid": 9, "name": "Golden Shower", "dem_source": "DOM_Oetztal_50cm", "line_status": "ok", "route_confidence": 0.85152742772156043, "support_score": 81.532161689413641, "collapse_risk_score": 18.467838310586359 }, "geometry": { "type": "LineString", "coordinates": [ [ 10.904841773099042, 47.155924914736524 ], [ 10.904834977360673, 47.155905939486829 ], [ 10.904871287949529, 47.155913479591796 ], [ 10.904842803475116, 47.155987123569638 ], [ 10.904867066772644, 47.156026753024008 ], [ 10.904927394772519, 47.15607084415354 ], [ 10.90493599014127, 47.156103993483654 ], [ 10.905008420856149, 47.156126245314475 ], [ 10.90506769738985, 47.156089082323739 ], [ 10.905106752943746, 47.156081588764764 ], [ 10.90518475998557, 47.156071016121587 ], [ 10.90521349031987, 47.156106711683421 ], [ 10.905257710193101, 47.156131690210664 ], [ 10.905260201122864, 47.156210609369701 ], [ 10.905288323312469, 47.156232331432037 ], [ 10.905302803303702, 47.156203064720977 ], [ 10.905290526409747, 47.15621702785171 ], [ 10.90526717892307, 47.156246618645866 ] ] } },
{ "type": "Feature", "properties": { "uid": 10, "name": "Reichalm Fall", "dem_source": "DOM_Oetztal_50cm", "line_status": "ok", "route_confidence": 0.89526668498028505, "support_score": 78.333171011045295, "collapse_risk_score": 21.666828988954705 }, "geometry": { "type": "LineString", "coordinates": [ [ 10.941940012785746, 47.163267976172968 ], [ 10.941938990328833, 47.163178032629624 ], [ 10.941937967876862, 47.163088089084823 ], [ 10.941936945429841, 47.16299814553863 ], [ 10.941882919275461, 47.162921699185681 ], [ 10.941782275761984, 47.162867159613349 ], [ 10.941776185175334, 47.162778161204777 ], [ 10.941775163012471, 47.162688217650988 ], [ 10.941774350505792, 47.162616722140207 ] ] } },
{ "type": "Feature", "properties": { "uid": 11, "name": "Dripping Elegance", "dem_source": "DOM_Oetztal_50cm", "line_status": "ok", "route_confidence": 0.85845780553260109, "support_score": 76.651355836075695, "collapse_risk_score": 23.348644163924305 }, "geometry": { "type": "LineString", "coordinates": [ [ 10.909313057378744, 47.125967517684572 ], [ 10.909291612795185, 47.125972052289519 ], [ 10.909395645681171, 47.125990149750336 ], [ 10.909423086831588, 47.12598645656027 ], [ 10.909455615860024, 47.125989291669356 ], [ 10.909569335235467, 47.125974823169294 ], [ 10.90967543759812, 47.125956637898554 ], [ 10.909724010808048, 47.125912172039889 ], [ 10.909739579255284, 47.125914784573752 ], [ 10.909850502722456, 47.125915755173786 ], [ 10.909924209678259, 47.125883503571316 ], [ 10.909995043480535, 47.125854637900822 ], [ 10.9101098535936, 47.125842096276344 ], [ 10.910187302881376, 47.125868693038015 ], [ 10.910162053437816, 47.125868819565078 ] ] } },
{ "type": "Feature", "properties": { "uid": 12, "name": "Nachtfalter", "dem_source": "DOM_Oetztal_50cm", "line_status": "ok", "route_confidence": 0.91580037921669222, "support_score": 64.505115662080485, "collapse_risk_score": 35.494884337919515 }, "geometry": { "type": "LineString", "coordinates": [ [ 10.953441462679026, 47.108692753214044 ], [ 10.953427031902503, 47.108708925413829 ], [ 10.953443922659101, 47.108703330957226 ], [ 10.953490391515661, 47.108751404375461 ], [ 10.953513342302932, 47.108778534736565 ], [ 10.9535257961416, 47.108772724244673 ], [ 10.953547648764374, 47.108847845018239 ], [ 10.953568684728433, 47.108870911541878 ], [ 10.953616474230442, 47.108861495225732 ], [ 10.953648119794334, 47.108904218440038 ], [ 10.953679659770609, 47.108929069410017 ], [ 10.953752879367377, 47.108925720164947 ], [ 10.953734568298524, 47.108979087643092 ], [ 10.95366110068688, 47.109033378639104 ], [ 10.953636611891787, 47.109048365276116 ], [ 10.953621162384694, 47.109052041414209 ], [ 10.953643131226848, 47.109042470491751 ] ] } },
{ "type": "Feature", "properties": { "uid": 13, "name": "Spongebob", "dem_source": "DOM_Oetztal_50cm", "line_status": "ok", "route_confidence": 0.83264947866508965, "support_score": 79.262713706744449, "collapse_risk_score": 20.737286293255551 }, "geometry": { "type": "LineString", "coordinates": [ [ 10.967238448905741, 47.101129240813854 ], [ 10.967224115284255, 47.101121889692536 ], [ 10.967199081563953, 47.101142093312518 ], [ 10.967164611346647, 47.101159936256622 ], [ 10.967200453112786, 47.101181400205597 ], [ 10.96713448612803, 47.101170291041925 ], [ 10.967085477913251, 47.101170561005219 ], [ 10.96700381403863, 47.101206766753442 ], [ 10.967038667378855, 47.101226496423365 ], [ 10.967063686576948, 47.101246272204321 ], [ 10.967108248682372, 47.101315940953938 ], [ 10.96714901935214, 47.101364697063644 ], [ 10.967181631325282, 47.101390551246517 ], [ 10.967149573158203, 47.101394533006605 ], [ 10.967155964514944, 47.101395047584347 ] ] } },
{ "type": "Feature", "properties": { "uid": 14, "name": "Drytooling Klettergarten", "dem_source": "DOM_Oetztal_50cm", "line_status": "ok", "route_confidence": 0.78753078193419357, "support_score": 60.680365698303483, "collapse_risk_score": 39.319634301696517 }, "geometry": { "type": "LineString", "coordinates": [ [ 10.957782050077364, 47.098459965698744 ], [ 10.957821876996034, 47.098477809198975 ], [ 10.957779172334599, 47.098415813434002 ], [ 10.957681871518668, 47.098389966131535 ], [ 10.957616411151003, 47.098375412042188 ] ] } },
{ "type": "Feature", "properties": { "uid": 15, "name": "Triple Direkt", "dem_source": "DOM_Oetztal_50cm", "line_status": "ok", "route_confidence": 0.97458921224697259, "support_score": 84.380813643453152, "collapse_risk_score": 15.619186356546848 }, "geometry": { "type": "LineString", "coordinates": [ [ 10.939560567686353, 47.086441134680946 ], [ 10.939541648058626, 47.086436433712514 ], [ 10.939542590774478, 47.086412811992673 ], [ 10.939561081859758, 47.086454122461888 ], [ 10.939613124388725, 47.086521113294822 ], [ 10.939684946421719, 47.086579902085219 ], [ 10.93971541521659, 47.086596887163225 ], [ 10.93981359691219, 47.086633520202547 ], [ 10.939865872721544, 47.086654281666384 ], [ 10.939891719565258, 47.086721874573037 ], [ 10.939992485113999, 47.086776255805276 ], [ 10.940068228147936, 47.086807254688068 ], [ 10.940170034450718, 47.086857033663705 ], [ 10.94025550587107, 47.086908520194086 ], [ 10.940301125633166, 47.086934172577465 ], [ 10.940396278978135, 47.086959652715599 ], [ 10.940421204992813, 47.08694292594032 ], [ 10.940425499214603, 47.086949874612884 ], [ 10.940444536076052, 47.086939318682937 ], [ 10.940511851040215, 47.086939839984353 ], [ 10.940579465527966, 47.086943423880719 ], [ 10.940559399447247, 47.086936946381741 ], [ 10.940580251857019, 47.086939479047949 ] ] } },
{ "type": "Feature", "properties": { "uid": 16, "name": "Guillotine", "dem_source": "DOM_Oetztal_50cm", "line_status": "ok", "route_confidence": 0.86511056445592649, "support_score": 44.839979611809042, "collapse_risk_score": 55.160020388190958 }, "geometry": { "type": "LineString", "coordinates": [ [ 10.944164410818679, 47.083646322955424 ], [ 10.944181367131618, 47.083671114934646 ], [ 10.944173782819847, 47.08363793461838 ], [ 10.944224060667501, 47.083680637453696 ], [ 10.944322454361586, 47.083713814894963 ], [ 10.944382910601989, 47.083753103088455 ] ] } },
{ "type": "Feature", "properties": { "uid": 17, "name": "Mixed Klettergarten Liftspur", "dem_source": "DOM_Oetztal_50cm", "line_status": "ok", "route_confidence": 0.6191394174840178, "support_score": 79.271920000160279, "collapse_risk_score": 20.728079999839721 }, "geometry": { "type": "LineString", "coordinates": [ [ 10.963934545423887, 47.082851549008936 ], [ 10.963937033198247, 47.08283496141479 ], [ 10.963913643288896, 47.08281773848983 ], [ 10.963920031999148, 47.082830635228355 ], [ 10.963803605054778, 47.082798296489521 ], [ 10.963696889151159, 47.082798566557848 ], [ 10.96368623334245, 47.082875303271301 ], [ 10.963747433591655, 47.082900895799312 ], [ 10.963721057311909, 47.082858331876288 ], [ 10.963658569656715, 47.082810930428927 ], [ 10.963645771578275, 47.082810562385752 ], [ 10.963662696799991, 47.082865500411351 ], [ 10.963644056075335, 47.0828909449558 ], [ 10.963632382601009, 47.082912366335428 ], [ 10.963639506514729, 47.082991523512241 ], [ 10.963620476037141, 47.083019850038916 ], [ 10.963614033719576, 47.083031942685068 ], [ 10.963551814885943, 47.083015084859255 ], [ 10.963548104155477, 47.083024571897788 ] ] } },
{ "type": "Feature", "properties": { "uid": 18, "name": "Esso Mixed", "dem_source": "DOM_Oetztal_50cm", "line_status": "ok", "route_confidence": 0.88381767559218127, "support_score": 79.114024627092434, "collapse_risk_score": 20.885975372907566 }, "geometry": { "type": "LineString", "coordinates": [ [ 10.971616666636629, 47.069968774325986 ], [ 10.971621995963824, 47.069975911200338 ], [ 10.9715612217136, 47.070011517054866 ], [ 10.971514014128953, 47.070054793045138 ], [ 10.971535079991733, 47.070026016769084 ], [ 10.971426065527885, 47.070024047726953 ], [ 10.971308418057895, 47.070042444525726 ], [ 10.971238512425517, 47.070037045110894 ], [ 10.971191202293149, 47.070057052439751 ], [ 10.971187900330577, 47.070130497897154 ], [ 10.971171402794486, 47.070191363436876 ], [ 10.9711917576003, 47.070218494771837 ] ] } },
{ "type": "Feature", "properties": { "uid": 19, "name": "Badle", "dem_source": "DOM_Oetztal_50cm", "line_status": "ok", "route_confidence": 0.87227451090103403, "support_score": 79.733746350018052, "collapse_risk_score": 20.266253649981948 }, "geometry": { "type": "LineString", "coordinates": [ [ 10.971878090393737, 47.069256715052497 ], [ 10.971858244616271, 47.06922456557475 ], [ 10.971840341258147, 47.069233312584331 ], [ 10.97182609502701, 47.069312688916447 ], [ 10.971740013723554, 47.0693111177861 ], [ 10.971656177061586, 47.069287336707148 ], [ 10.97164803597741, 47.069285053279295 ], [ 10.97157616618977, 47.069330399887477 ], [ 10.971596080803634, 47.069353006533575 ], [ 10.971590231211325, 47.069406108526302 ], [ 10.971609944434965, 47.069415417854863 ], [ 10.971596185742792, 47.069417788682976 ], [ 10.971544647732667, 47.069447752371211 ], [ 10.971519243337047, 47.069525685365328 ], [ 10.971541929387769, 47.069611138663731 ], [ 10.971553829055919, 47.069689989500489 ], [ 10.971567448116799, 47.069704598052745 ], [ 10.971556779336931, 47.069758987150237 ], [ 10.971549043242925, 47.06981761384408 ], [ 10.971543232733501, 47.06990547314323 ], [ 10.971501594375182, 47.069962102855762 ], [ 10.971525443646831, 47.07004742950997 ], [ 10.971533389843314, 47.070025629005478 ], [ 10.971566249625587, 47.070032450898289 ], [ 10.971558129037062, 47.070028233962553 ], [ 10.971527382677479, 47.070073558888801 ], [ 10.971453901688994, 47.070120459460163 ], [ 10.971461169425119, 47.070207065232132 ], [ 10.971474024979701, 47.070290519049628 ], [ 10.971468025259362, 47.070334076976827 ], [ 10.971442035453075, 47.070386318328296 ], [ 10.971471221096271, 47.070470031965954 ], [ 10.971417239309876, 47.070504750363561 ], [ 10.971406558893792, 47.070568110262982 ] ] } },
{ "type": "Feature", "properties": { "uid": 20, "name": "Burgsteiner Mixed", "dem_source": "DOM_Oetztal_50cm", "line_status": "ok", "route_confidence": 0.96790779892939327, "support_score": 85.26753300902925, "collapse_risk_score": 14.73246699097075 }, "geometry": { "type": "LineString", "coordinates": [ [ 10.969977497651069, 47.061077254709431 ], [ 10.969935812681662, 47.061143100243875 ], [ 10.969913350786131, 47.061167147592698 ], [ 10.969863972544214, 47.061174235548521 ], [ 10.969789037032729, 47.061150520684542 ], [ 10.969782086482025, 47.06114495515078 ], [ 10.969705718735884, 47.061177704081196 ], [ 10.969661295609523, 47.061170727745761 ], [ 10.969566050489364, 47.061160862917419 ], [ 10.969492954048333, 47.061182525458619 ], [ 10.969392854220722, 47.061185056258196 ], [ 10.969307466675346, 47.061180110135076 ], [ 10.969261297856528, 47.061184698810592 ], [ 10.969225964476779, 47.061179649916077 ], [ 10.969115896585695, 47.061220697668688 ], [ 10.969029650133594, 47.061198569519263 ], [ 10.968933058075278, 47.061204463296242 ], [ 10.96883529407045, 47.061210108470014 ], [ 10.968753505073225, 47.061197304072437 ], [ 10.96872632704024, 47.061248846749734 ], [ 10.96871364279192, 47.061218743999419 ], [ 10.96866254520048, 47.061180096776283 ], [ 10.968557757376528, 47.061232370838894 ], [ 10.968448234206962, 47.061274603859204 ], [ 10.968351363893657, 47.061275780323946 ], [ 10.968333884467974, 47.061284684706891 ], [ 10.968233465388579, 47.061340820735168 ], [ 10.96817063323221, 47.06139546043174 ], [ 10.968114316257765, 47.061416655954183 ], [ 10.968072913082439, 47.061461387932326 ], [ 10.96800557066436, 47.061520831695375 ], [ 10.967941526013858, 47.061551313457947 ], [ 10.967882124076381, 47.061597052344503 ], [ 10.967812855091825, 47.061660125665071 ], [ 10.967740200871814, 47.061687910563535 ], [ 10.967638029833095, 47.061730946962783 ], [ 10.967543905124943, 47.061769825831071 ], [ 10.967473582006621, 47.061815471346463 ], [ 10.967424029457716, 47.061824804769522 ], [ 10.967331836586149, 47.061869489345341 ], [ 10.967214006091879, 47.061893074949339 ], [ 10.967150322959668, 47.061916328614259 ], [ 10.967082631315961, 47.061958663189017 ], [ 10.966996036988943, 47.062019931582 ], [ 10.966902942338487, 47.062083446821745 ], [ 10.966863268452659, 47.062097395729204 ] ] } },
{ "type": "Feature", "properties": { "uid": 21, "name": "Mixed Klettergebiet", "dem_source": "DOM_Oetztal_50cm", "line_status": "ok", "route_confidence": 0.66676269921484599, "support_score": 77.892954121711412, "collapse_risk_score": 22.107045878288588 }, "geometry": { "type": "LineString", "coordinates": [ [ 10.965542867217414, 47.058956389238674 ], [ 10.965597054474156, 47.058953815854856 ], [ 10.965580668823167, 47.058950578235496 ], [ 10.965534550990393, 47.058963104435399 ], [ 10.96559587991044, 47.058987148153577 ], [ 10.965617724535893, 47.058959945474669 ], [ 10.96566273319984, 47.058957377787166 ], [ 10.965693853035253, 47.059013306403308 ], [ 10.965745961685364, 47.058978996682505 ], [ 10.965811139092883, 47.058964192434864 ], [ 10.965832160541114, 47.058932132723491 ], [ 10.965828443963431, 47.058894117637685 ], [ 10.965913311939461, 47.058877894867095 ], [ 10.966008825866329, 47.058844605660241 ], [ 10.966037265820955, 47.058802538860931 ], [ 10.966054863194916, 47.058823730766377 ], [ 10.966149512550688, 47.058855712775774 ], [ 10.966236365705511, 47.058917922067522 ], [ 10.966233616282128, 47.058931646702497 ], [ 10.966329508263239, 47.058957347115069 ], [ 10.966391859012472, 47.058982364183983 ], [ 10.9663658533541, 47.058969706196009 ], [ 10.966388840646751, 47.059008187853259 ], [ 10.966353565390188, 47.059042374945641 ], [ 10.966350157858891, 47.059047895905941 ], [ 10.966366594027852, 47.059046307662719 ] ] } },
{ "type": "Feature", "properties": { "uid": 22, "name": "Nordstau", "dem_source": "DOM_Oetztal_50cm", "line_status": "ok", "route_confidence": 0.66676269921484599, "support_score": 77.892954121711412, "collapse_risk_score": 22.107045878288588 }, "geometry": { "type": "LineString", "coordinates": [ [ 10.965542867217414, 47.058956389238674 ], [ 10.965597054474156, 47.058953815854856 ], [ 10.965580668823167, 47.058950578235496 ], [ 10.965534550990393, 47.058963104435399 ], [ 10.96559587991044, 47.058987148153577 ], [ 10.965617724535893, 47.058959945474669 ], [ 10.96566273319984, 47.058957377787166 ], [ 10.965693853035253, 47.059013306403308 ], [ 10.965745961685364, 47.058978996682505 ], [ 10.965811139092883, 47.058964192434864 ], [ 10.965832160541114, 47.058932132723491 ], [ 10.965828443963431, 47.058894117637685 ], [ 10.965913311939461, 47.058877894867095 ], [ 10.966008825866329, 47.058844605660241 ], [ 10.966037265820955, 47.058802538860931 ], [ 10.966054863194916, 47.058823730766377 ], [ 10.966149512550688, 47.058855712775774 ], [ 10.966236365705511, 47.058917922067522 ], [ 10.966233616282128, 47.058931646702497 ], [ 10.966329508263239, 47.058957347115069 ], [ 10.966391859012472, 47.058982364183983 ], [ 10.9663658533541, 47.058969706196009 ], [ 10.966388840646751, 47.059008187853259 ], [ 10.966353565390188, 47.059042374945641 ], [ 10.966350157858891, 47.059047895905941 ], [ 10.966366594027852, 47.059046307662719 ] ] } },
{ "type": "Feature", "properties": { "uid": 23, "name": "Pokerface", "dem_source": "DOM_Oetztal_50cm", "line_status": "ok", "route_confidence": 0.66676269921484599, "support_score": 77.892954121711412, "collapse_risk_score": 22.107045878288588 }, "geometry": { "type": "LineString", "coordinates": [ [ 10.965542867217414, 47.058956389238674 ], [ 10.965597054474156, 47.058953815854856 ], [ 10.965580668823167, 47.058950578235496 ], [ 10.965534550990393, 47.058963104435399 ], [ 10.96559587991044, 47.058987148153577 ], [ 10.965617724535893, 47.058959945474669 ], [ 10.96566273319984, 47.058957377787166 ], [ 10.965693853035253, 47.059013306403308 ], [ 10.965745961685364, 47.058978996682505 ], [ 10.965811139092883, 47.058964192434864 ], [ 10.965832160541114, 47.058932132723491 ], [ 10.965828443963431, 47.058894117637685 ], [ 10.965913311939461, 47.058877894867095 ], [ 10.966008825866329, 47.058844605660241 ], [ 10.966037265820955, 47.058802538860931 ], [ 10.966054863194916, 47.058823730766377 ], [ 10.966149512550688, 47.058855712775774 ], [ 10.966236365705511, 47.058917922067522 ], [ 10.966233616282128, 47.058931646702497 ], [ 10.966329508263239, 47.058957347115069 ], [ 10.966391859012472, 47.058982364183983 ], [ 10.9663658533541, 47.058969706196009 ], [ 10.966388840646751, 47.059008187853259 ], [ 10.966353565390188, 47.059042374945641 ], [ 10.966350157858891, 47.059047895905941 ], [ 10.966366594027852, 47.059046307662719 ] ] } },
{ "type": "Feature", "properties": { "uid": 24, "name": "New Life", "dem_source": "DOM_Oetztal_50cm", "line_status": "ok", "route_confidence": 0.97145930443764905, "support_score": 58.950473747413227, "collapse_risk_score": 41.049526252586773 }, "geometry": { "type": "LineString", "coordinates": [ [ 10.966396478042432, 47.058789783995437 ], [ 10.966417287106671, 47.058759795833922 ], [ 10.966471942279624, 47.058775876107219 ], [ 10.96638871509383, 47.058771836592605 ], [ 10.966417934161948, 47.058800289174584 ], [ 10.966361680812803, 47.058825225685908 ], [ 10.966235239297156, 47.05884014399625 ], [ 10.966111012383946, 47.058840827362516 ], [ 10.965983195860217, 47.058850525394881 ], [ 10.965855379288687, 47.058860223284803 ], [ 10.965724996052158, 47.058865437610876 ], [ 10.965595741706444, 47.058866148054008 ], [ 10.965495339823532, 47.058902680051183 ], [ 10.965444698262999, 47.0588981810427 ], [ 10.965377124257284, 47.058930314769455 ], [ 10.965268819682441, 47.058910540095198 ], [ 10.965231452499141, 47.058869715726345 ], [ 10.965311749277834, 47.058908186270116 ], [ 10.96524857757316, 47.05887058504581 ], [ 10.965296048750517, 47.058894779928295 ], [ 10.965285576811116, 47.058903832513565 ] ] } },
{ "type": "Feature", "properties": { "uid": 25, "name": "Via Ali", "dem_source": "DOM_Oetztal_50cm", "line_status": "ok", "route_confidence": 0.83823943706815185, "support_score": 83.357525487642306, "collapse_risk_score": 16.642474512357694 }, "geometry": { "type": "LineString", "coordinates": [ [ 10.9432114713542, 47.060615087444674 ], [ 10.943244136871803, 47.060593751684543 ], [ 10.943243115891896, 47.06050380654424 ], [ 10.943283352227288, 47.060424685909823 ], [ 10.943390679200499, 47.060381925171207 ], [ 10.943490192615792, 47.060340054488343 ], [ 10.943582541233784, 47.06027596009146 ], [ 10.943677824783141, 47.060214361184343 ], [ 10.943770172959212, 47.060150266636811 ], [ 10.943805296957715, 47.060166683132934 ] ] } },
{ "type": "Feature", "properties": { "uid": 27, "name": "Fritz Phantom", "dem_source": "DOM_Oetztal_50cm", "line_status": "ok", "route_confidence": 0.91702504604807455, "support_score": 76.552729488885817, "collapse_risk_score": 23.447270511114183 }, "geometry": { "type": "LineString", "coordinates": [ [ 10.973147317815904, 47.006135583894078 ], [ 10.973148387050298, 47.006225529380124 ], [ 10.97319641334056, 47.006302464934521 ], [ 10.97329301994291, 47.006363021578842 ], [ 10.973398019127222, 47.006408540939937 ], [ 10.973506278143464, 47.00644855068159 ], [ 10.973600011530324, 47.006511634214988 ], [ 10.97367334402076, 47.006581495232176 ], [ 10.97376556381867, 47.006645358342965 ], [ 10.973798686054316, 47.006726614506036 ], [ 10.973723776140815, 47.006771030994663 ], [ 10.973660218532537, 47.006832651909583 ], [ 10.97361157171329, 47.006884094931408 ], [ 10.973538274112332, 47.006943920645924 ], [ 10.973459527417676, 47.006997490952216 ], [ 10.973407757361592, 47.00702650823952 ], [ 10.973355763792467, 47.007062141847882 ], [ 10.973295446839311, 47.007101737658452 ], [ 10.973198725006394, 47.007141428996988 ], [ 10.973251822710644, 47.00720082010421 ], [ 10.973173233243713, 47.007209404402865 ], [ 10.973120239963686, 47.007246634622376 ], [ 10.973094884644592, 47.007255770796206 ] ] } },
{ "type": "Feature", "properties": { "uid": 28, "name": "Waldesruh Ralley - Bichlfall", "dem_source": "DOM_Oetztal_50cm", "line_status": "ok", "route_confidence": 0.94960462533603784, "support_score": 44.580313834384697, "collapse_risk_score": 55.419686165615303 }, "geometry": { "type": "LineString", "coordinates": [ [ 10.995634384296336, 47.028122814172804 ], [ 10.995658175136906, 47.028099651781666 ], [ 10.995583152139796, 47.028060143407004 ], [ 10.995601619403406, 47.028067379640838 ], [ 10.995538057523595, 47.028096383510828 ], [ 10.995423339818478, 47.028077098773018 ], [ 10.995370655419693, 47.028034381477816 ], [ 10.995264091941449, 47.02799432815943 ], [ 10.995230483860263, 47.028013598288034 ], [ 10.995185786427907, 47.028015205735926 ], [ 10.995107504408498, 47.028031627300642 ], [ 10.995126920269945, 47.027995174457622 ], [ 10.995112548542753, 47.028014275113414 ], [ 10.995049577351368, 47.027968765931604 ], [ 10.995033548337545, 47.027969367517237 ], [ 10.994995131333726, 47.02795586808832 ], [ 10.994995081283957, 47.027899611603658 ], [ 10.994906528225467, 47.027865353272659 ], [ 10.994911616214964, 47.027889959444202 ], [ 10.994949320229548, 47.02787147016798 ], [ 10.994878785504863, 47.027824596374529 ], [ 10.994850109673969, 47.027777642885631 ], [ 10.99474478106236, 47.027743820887103 ], [ 10.994720813695878, 47.027706171181158 ], [ 10.99461608915489, 47.027671150904688 ], [ 10.994514452074805, 47.02764871707793 ], [ 10.994429046911948, 47.027613319448456 ], [ 10.994352017001052, 47.027608475220632 ] ] } },
{ "type": "Feature", "properties": { "uid": 29, "name": "Taufenbachfall (ohne Vorhang)", "dem_source": "DOM_Oetztal_50cm", "line_status": "ok", "route_confidence": 0.63524281414470041, "support_score": 45.488508324574831, "collapse_risk_score": 54.511491675425169 }, "geometry": { "type": "LineString", "coordinates": [ [ 10.995642285938425, 47.021821689360522 ], [ 10.995653148967788, 47.021847275775393 ], [ 10.995643985320291, 47.021835023165643 ], [ 10.995695141557821, 47.021841292273677 ], [ 10.995688451885533, 47.021832125120682 ], [ 10.995681799177575, 47.021825959364456 ] ] } },
{ "type": "Feature", "properties": { "uid": 30, "name": "Mhlgartenfall / Betonwerks?õule", "dem_source": "DOM_Oetztal_50cm", "line_status": "ok", "route_confidence": 0.63524281414470041, "support_score": 45.488508324574831, "collapse_risk_score": 54.511491675425169 }, "geometry": { "type": "LineString", "coordinates": [ [ 10.995642285938425, 47.021821689360522 ], [ 10.995653148967788, 47.021847275775393 ], [ 10.995643985320291, 47.021835023165643 ], [ 10.995695141557821, 47.021841292273677 ], [ 10.995688451885533, 47.021832125120682 ], [ 10.995681799177575, 47.021825959364456 ] ] } },
{ "type": "Feature", "properties": { "uid": 31, "name": "Elfenbein", "dem_source": "DOM_Oetztal_50cm", "line_status": "ok", "route_confidence": 0.63524281414470041, "support_score": 45.488508324574831, "collapse_risk_score": 54.511491675425169 }, "geometry": { "type": "LineString", "coordinates": [ [ 10.995642285938425, 47.021821689360522 ], [ 10.995653148967788, 47.021847275775393 ], [ 10.995643985320291, 47.021835023165643 ], [ 10.995695141557821, 47.021841292273677 ], [ 10.995688451885533, 47.021832125120682 ], [ 10.995681799177575, 47.021825959364456 ] ] } },
{ "type": "Feature", "properties": { "uid": 32, "name": "R?õtselburg", "dem_source": "DOM_Oetztal_50cm", "line_status": "ok", "route_confidence": 0.93833455242337305, "support_score": 75.141328492652789, "collapse_risk_score": 24.858671507347211 }, "geometry": { "type": "LineString", "coordinates": [ [ 10.999237692302888, 47.007840481126465 ], [ 10.999253360761731, 47.007916849120697 ], [ 10.999290623401739, 47.007867195412899 ], [ 10.999265066905352, 47.007873622983162 ], [ 10.999254593433264, 47.007856992532894 ], [ 10.999297408641672, 47.007911182010695 ], [ 10.999318550838245, 47.007951010326359 ], [ 10.999306019338633, 47.007981222765487 ], [ 10.999371592103952, 47.008034264746328 ], [ 10.999379270057451, 47.008123364009172 ], [ 10.999360479610726, 47.008198889951082 ], [ 10.999315753061712, 47.008228775189828 ], [ 10.999315936109397, 47.008318647308307 ], [ 10.999355566919741, 47.008333197792055 ], [ 10.999350095575554, 47.008422373205057 ], [ 10.999360682006891, 47.008490363864226 ], [ 10.99937638598939, 47.008559234316962 ], [ 10.999411223848453, 47.008580070201084 ], [ 10.999365818056402, 47.008630180171942 ], [ 10.999379705118164, 47.008689699758463 ] ] } },
{ "type": "Feature", "properties": { "uid": 33, "name": "Freizeitstress", "dem_source": "DOM_Oetztal_50cm", "line_status": "ok", "route_confidence": 0.90439990206062459, "support_score": 78.51858912632899, "collapse_risk_score": 21.48141087367101 }, "geometry": { "type": "LineString", "coordinates": [ [ 10.999375869988754, 47.007848676078154 ], [ 10.999442412298958, 47.007893588877693 ], [ 10.999435878703711, 47.007915981371838 ], [ 10.99942604470411, 47.007967375689397 ], [ 10.999402751206572, 47.008014458208464 ], [ 10.999390993709, 47.008008118387075 ], [ 10.999414615581083, 47.008047949850543 ], [ 10.999456618331118, 47.008117556183308 ], [ 10.999376336589521, 47.008159005831473 ], [ 10.99932787219249, 47.008220550869851 ], [ 10.99935271665448, 47.008305278121242 ], [ 10.99935511270006, 47.008296501061757 ], [ 10.999379026629788, 47.008341735948093 ], [ 10.999418436196033, 47.008422279086794 ], [ 10.99940300932103, 47.008483589841198 ], [ 10.999404020808448, 47.008529346722547 ], [ 10.999425712375388, 47.008604334396161 ], [ 10.999450885459511, 47.008647114940494 ], [ 10.999465120443038, 47.008684707458592 ] ] } },
{ "type": "Feature", "properties": { "uid": 34, "name": "Namenlos", "dem_source": "DOM_Oetztal_50cm", "line_status": "ok", "route_confidence": 0.99176550855892065, "support_score": 80.307747658625232, "collapse_risk_score": 19.692252341374768 }, "geometry": { "type": "LineString", "coordinates": [ [ 11.019777184166376, 46.972193265741858 ], [ 11.019787440981062, 46.972219425123889 ], [ 11.019703884428912, 46.972239784709366 ], [ 11.019698811067025, 46.972234244158024 ], [ 11.019671315056337, 46.972249192891319 ], [ 11.019601166635002, 46.972320565002633 ], [ 11.019622334179909, 46.972315625368509 ], [ 11.019585002728252, 46.972351328342263 ], [ 11.019534638896923, 46.97239850476376 ], [ 11.019439475017201, 46.972438727226617 ], [ 11.019373434665811, 46.972478564083481 ], [ 11.019337160591123, 46.972536054437022 ], [ 11.019246934399886, 46.972601120743668 ], [ 11.019180894915785, 46.972658508935645 ], [ 11.019144899399425, 46.972718690101644 ], [ 11.019181420788897, 46.972693473296445 ], [ 11.01920430964107, 46.972683239634847 ], [ 11.019111924122063, 46.972724697199794 ], [ 11.01902992096989, 46.972790888329129 ], [ 11.01893781285523, 46.972855043282017 ], [ 11.018906414862853, 46.972859608513964 ], [ 11.01892150935854, 46.972911770188844 ], [ 11.018833094614177, 46.972977889459195 ], [ 11.018806495576728, 46.972977106571257 ], [ 11.018729067144321, 46.973023123140891 ], [ 11.018654379846815, 46.973093292014973 ], [ 11.01856303829052, 46.973157894352866 ], [ 11.018506233748576, 46.973232773557136 ], [ 11.018516456018798, 46.973292844054583 ], [ 11.018437380990694, 46.973362397469415 ], [ 11.018393487943271, 46.973440485008233 ], [ 11.018361676850073, 46.973522511998191 ], [ 11.018298473594093, 46.973595259049191 ], [ 11.018283880855611, 46.973605422826999 ] ] } },
{ "type": "Feature", "properties": { "uid": 35, "name": "Hohe Brcke", "dem_source": "DOM_Oetztal_50cm", "line_status": "ok", "route_confidence": 0.72834054845068175, "support_score": 81.071304513810063, "collapse_risk_score": 18.928695486189937 }, "geometry": { "type": "LineString", "coordinates": [ [ 10.967127672441727, 46.904675823238179 ], [ 10.967228982913877, 46.904667288723608 ], [ 10.967329090702165, 46.904639824634337 ], [ 10.967428288214183, 46.904602406267699 ], [ 10.967521210904895, 46.904588198264562 ], [ 10.967632197311426, 46.904583035845285 ], [ 10.967658191484778, 46.904587442760175 ] ] } },
{ "type": "Feature", "properties": { "uid": 36, "name": "Testgolla", "dem_source": "DOM_Oetztal_50cm", "line_status": "ok", "route_confidence": 0.78753078193419357, "support_score": 60.680365698303483, "collapse_risk_score": 39.319634301696517 }, "geometry": { "type": "LineString", "coordinates": [ [ 10.957782050077364, 47.098459965698744 ], [ 10.957821876996034, 47.098477809198975 ], [ 10.957779172334599, 47.098415813434002 ], [ 10.957681871518668, 47.098389966131535 ], [ 10.957616411151003, 47.098375412042188 ] ] } },
{ "type": "Feature", "properties": { "uid": 37, "name": "Klettergarten Oberried - Eispark", "dem_source": "DOM_Oetztal_50cm", "line_status": "ok", "route_confidence": 0.88555875773478088, "support_score": 53.176199454161967, "collapse_risk_score": 46.823800545838033 }, "geometry": { "type": "LineString", "coordinates": [ [ 10.949866742611828, 47.075641819834914 ], [ 10.949864533859973, 47.075628690610252 ], [ 10.949862616536803, 47.075671291271036 ], [ 10.949863260314011, 47.075733190706408 ], [ 10.949847448441513, 47.07574086857381 ], [ 10.949830306057825, 47.075731189048923 ], [ 10.949795928271959, 47.07578145368705 ], [ 10.949785437230283, 47.075849141209225 ], [ 10.94982698291717, 47.075882149324627 ], [ 10.949830552581099, 47.075930164008831 ], [ 10.949838105809276, 47.076014636486647 ], [ 10.949852225077509, 47.07609759055233 ], [ 10.949911752383315, 47.076121652138873 ], [ 10.949929683914963, 47.076205404061902 ], [ 10.94992623951882, 47.076236631040224 ], [ 10.94990088036494, 47.07632152102854 ], [ 10.949888717954643, 47.076409010922241 ], [ 10.949935599079838, 47.076478395678016 ], [ 10.949935955892135, 47.076509469513489 ] ] } },
{ "type": "Feature", "properties": { "uid": 38, "name": "Zwieselsteinf?õlle", "dem_source": "DOM_Oetztal_50cm", "line_status": "ok", "route_confidence": 0.92994138663670733, "support_score": 79.443812325435587, "collapse_risk_score": 20.556187674564413 }, "geometry": { "type": "LineString", "coordinates": [ [ 11.033431236598391, 46.942876446422822 ], [ 11.033417922516822, 46.942862592404566 ], [ 11.033426947044672, 46.942888512887315 ], [ 11.033457319675588, 46.942862172461879 ], [ 11.033481646578968, 46.942839089307178 ], [ 11.033454503373699, 46.942818249418693 ], [ 11.033463056604786, 46.942798236211601 ], [ 11.033364398988434, 46.942764412833043 ], [ 11.033253601673424, 46.94277858034944 ], [ 11.033221727571794, 46.942799135480506 ], [ 11.033227226860008, 46.942809624600486 ], [ 11.033220592985606, 46.942838210463393 ], [ 11.033257944729133, 46.942855793968519 ], [ 11.033266586393422, 46.942841451276458 ], [ 11.033248008002495, 46.942789237197431 ], [ 11.033243408461217, 46.942825162171296 ], [ 11.033214345280369, 46.942862817540359 ], [ 11.033173194296724, 46.942902573476999 ], [ 11.033109984922008, 46.942917778404244 ], [ 11.033144821452057, 46.942989079925077 ], [ 11.033131589809086, 46.943064451513401 ], [ 11.033174728225619, 46.943056048766159 ], [ 11.03321657451986, 46.943066845058276 ], [ 11.033269510324182, 46.943065287907423 ], [ 11.033263138853997, 46.943080360715285 ], [ 11.033246283359198, 46.943085587777553 ], [ 11.03327843764704, 46.943164100429833 ], [ 11.033297976881618, 46.943234610670686 ], [ 11.033323060312178, 46.94329952925203 ], [ 11.033306162793309, 46.943359307017587 ], [ 11.033323978427921, 46.943375916119891 ], [ 11.03333905691901, 46.943414361729161 ], [ 11.033371288054944, 46.943399265397034 ], [ 11.0333674645091, 46.943399420318357 ], [ 11.033398517589026, 46.943438290815941 ], [ 11.033428836168952, 46.943493102519717 ], [ 11.033421945682978, 46.943551138778339 ], [ 11.033447510700602, 46.943624048078611 ], [ 11.033411328753189, 46.943691360163207 ], [ 11.033402464005031, 46.943695189252871 ] ] } },
{ "type": "Feature", "properties": { "uid": 39, "name": "Khlenkar Wasserfall", "dem_source": "DOM_Oetztal_50cm", "line_status": "ok", "route_confidence": 0.79436017901820721, "support_score": 88.027697453503393, "collapse_risk_score": 11.972302546496607 }, "geometry": { "type": "LineString", "coordinates": [ [ 11.056281524761117, 47.057126499040187 ], [ 11.056180336978603, 47.057071977722572 ], [ 11.056074563275164, 47.057025210696068 ], [ 11.055966389181618, 47.056981909362953 ], [ 11.055872470418384, 47.056918894830552 ], [ 11.055837722450343, 47.056913406955431 ] ] } },
{ "type": "Feature", "properties": { "uid": 41, "name": "Wtenbach/Kaisers", "dem_source": "DOM_Oetztal_50cm", "line_status": "ok", "route_confidence": 0.85584150539984571, "support_score": 58.301719295481647, "collapse_risk_score": 41.698280704518353 }, "geometry": { "type": "LineString", "coordinates": [ [ 11.020124144149092, 46.989097650958023 ], [ 11.020130817328051, 46.989105522557963 ], [ 11.020106121199181, 46.989158734792788 ], [ 11.020150889511061, 46.989238963525942 ], [ 11.020149386343213, 46.989245040635041 ], [ 11.020114182951849, 46.989296051439133 ], [ 11.020056912721778, 46.989284953321402 ], [ 11.020056166776344, 46.989355364466192 ], [ 11.02003464182018, 46.989343845229264 ], [ 11.020029655776998, 46.989419334207462 ], [ 11.020025380714257, 46.989412394037565 ], [ 11.020109414549072, 46.98945017982404 ], [ 11.020104431178513, 46.989507664022483 ], [ 11.020057619491567, 46.989550453463579 ], [ 11.020064789080021, 46.989597237701169 ] ] } },
{ "type": "Feature", "properties": { "uid": 42, "name": "Sevlstauda", "dem_source": "DOM_Oetztal_50cm", "line_status": "ok", "route_confidence": 0.96384847183513844, "support_score": 76.932398650156983, "collapse_risk_score": 23.067601349843017 }, "geometry": { "type": "LineString", "coordinates": [ [ 10.954380417548631, 47.108998016114874 ], [ 10.954254946972254, 47.108985200773709 ], [ 10.954126800045273, 47.108976897224736 ], [ 10.953997205105798, 47.108982584682337 ], [ 10.953867119491335, 47.108987292903365 ], [ 10.953735377654663, 47.108988003283955 ], [ 10.953675827024357, 47.108954463963876 ], [ 10.953699966171991, 47.108937873292859 ], [ 10.953743224025672, 47.108951183595572 ], [ 10.953709702202255, 47.108885982576396 ], [ 10.953651132922236, 47.108834521951849 ], [ 10.953660535752537, 47.108826303074181 ], [ 10.953646389368803, 47.108768213525423 ], [ 10.953710736879977, 47.108763261607976 ], [ 10.953653669835129, 47.108724037617208 ], [ 10.953716133820473, 47.108718257604089 ], [ 10.9536651776817, 47.108750862182447 ], [ 10.953593788380696, 47.108763140386984 ], [ 10.953579689176348, 47.108763335507533 ], [ 10.953506585195727, 47.108696357764366 ], [ 10.953406980191158, 47.108638499118555 ], [ 10.953348308143168, 47.108612300360726 ] ] } },
{ "type": "Feature", "properties": { "uid": 43, "name": "Mammut Lex", "dem_source": "DOM_Oetztal_50cm", "line_status": "ok", "route_confidence": 0.63524281414470041, "support_score": 45.488508324574831, "collapse_risk_score": 54.511491675425169 }, "geometry": { "type": "LineString", "coordinates": [ [ 10.995642285938425, 47.021821689360522 ], [ 10.995653148967788, 47.021847275775393 ], [ 10.995643985320291, 47.021835023165643 ], [ 10.995695141557821, 47.021841292273677 ], [ 10.995688451885533, 47.021832125120682 ], [ 10.995681799177575, 47.021825959364456 ] ] } },
{ "type": "Feature", "properties": { "uid": 44, "name": "Gegenwind", "dem_source": "DOM_Oetztal_50cm", "line_status": "ok", "route_confidence": 0.90439990206062459, "support_score": 78.51858912632899, "collapse_risk_score": 21.48141087367101 }, "geometry": { "type": "LineString", "coordinates": [ [ 10.999375869988754, 47.007848676078154 ], [ 10.999442412298958, 47.007893588877693 ], [ 10.999435878703711, 47.007915981371838 ], [ 10.99942604470411, 47.007967375689397 ], [ 10.999402751206572, 47.008014458208464 ], [ 10.999390993709, 47.008008118387075 ], [ 10.999414615581083, 47.008047949850543 ], [ 10.999456618331118, 47.008117556183308 ], [ 10.999376336589521, 47.008159005831473 ], [ 10.99932787219249, 47.008220550869851 ], [ 10.99935271665448, 47.008305278121242 ], [ 10.99935511270006, 47.008296501061757 ], [ 10.999379026629788, 47.008341735948093 ], [ 10.999418436196033, 47.008422279086794 ], [ 10.99940300932103, 47.008483589841198 ], [ 10.999404020808448, 47.008529346722547 ], [ 10.999425712375388, 47.008604334396161 ], [ 10.999450885459511, 47.008647114940494 ], [ 10.999465120443038, 47.008684707458592 ] ] } },
{ "type": "Feature", "properties": { "uid": 45, "name": "Herbstgold", "dem_source": "DOM_Oetztal_50cm", "line_status": "ok", "route_confidence": 0.75714641588011222, "support_score": 59.870623666746681, "collapse_risk_score": 40.129376333253319 }, "geometry": { "type": "LineString", "coordinates": [ [ 10.965914977147706, 46.956324290778817 ], [ 10.965822833150636, 46.956388403354786 ], [ 10.965711809326377, 46.956424845787708 ], [ 10.965619664913564, 46.956488958201057 ], [ 10.96554331192562, 46.95655909777539 ], [ 10.965543430430486, 46.956569204660127 ] ] } },
{ "type": "Feature", "properties": { "uid": 46, "name": "Forsttechnik", "dem_source": "DOM_Oetztal_50cm", "line_status": "ok", "route_confidence": 0.98734365734098251, "support_score": 67.418674985785756, "collapse_risk_score": 32.581325014214244 }, "geometry": { "type": "LineString", "coordinates": [ [ 10.994908331434102, 47.016689697016311 ], [ 10.994905312046358, 47.016679236476172 ], [ 10.994920106940492, 47.016705049420835 ], [ 10.994978755510738, 47.016777198418851 ], [ 10.995041498463676, 47.016823356936825 ], [ 10.995125382716914, 47.016890124433026 ], [ 10.995156224524505, 47.016947765612386 ], [ 10.995132457644369, 47.016976251652459 ], [ 10.995139653666982, 47.016971712678505 ], [ 10.995084313427999, 47.017033408946503 ], [ 10.995109443305529, 47.017068553537413 ], [ 10.995156931195005, 47.017119055374749 ], [ 10.995183753420454, 47.017161110737433 ], [ 10.9952156670502, 47.017243816555336 ], [ 10.995234626350095, 47.017298771204395 ], [ 10.995235470537567, 47.017248663077318 ], [ 10.995290597171309, 47.017293123250923 ], [ 10.995362791387956, 47.017363451801309 ], [ 10.995338383392729, 47.017420577257127 ], [ 10.995344995882805, 47.017438487497202 ], [ 10.995396946976362, 47.017514570697941 ], [ 10.995387350471779, 47.017555221545571 ], [ 10.995360625445331, 47.017639761111354 ], [ 10.995381193136165, 47.017707923029974 ] ] } },
{ "type": "Feature", "properties": { "uid": 47, "name": "Milchschnitte", "dem_source": "DOM_Oetztal_50cm", "line_status": "ok", "route_confidence": 1.0179646381160274, "support_score": 62.065375123766273, "collapse_risk_score": 37.934624876233727 }, "geometry": { "type": "LineString", "coordinates": [ [ 10.916057405439759, 47.186865043802328 ], [ 10.915966676709232, 47.18691441562963 ], [ 10.915873948671804, 47.186978388301121 ], [ 10.915814623827679, 47.186996780975939 ], [ 10.915749251626993, 47.186992171548987 ], [ 10.915669452517587, 47.1870609789489 ], [ 10.915569715990051, 47.187116394842754 ], [ 10.915476109026816, 47.187176631472695 ], [ 10.915383507989651, 47.187240702902429 ], [ 10.915290906729627, 47.187304774257541 ], [ 10.915198258199155, 47.187368809106552 ], [ 10.915103121995477, 47.18738939277911 ], [ 10.914997697718572, 47.187435149665859 ], [ 10.914910722041389, 47.187472672828804 ], [ 10.914818119808002, 47.187536743803442 ], [ 10.914787790366317, 47.187619083991471 ], [ 10.914723825860367, 47.18768354287397 ], [ 10.914626867274858, 47.187728899368331 ], [ 10.914589751075361, 47.18777750556989 ], [ 10.914492410065025, 47.187825421405272 ], [ 10.914529431145768, 47.187835217034731 ], [ 10.914486014812184, 47.187854028398348 ], [ 10.914403494942503, 47.187879158575228 ], [ 10.91428782901057, 47.187899400426133 ], [ 10.914225800016627, 47.187936894134154 ], [ 10.91424880815784, 47.187900391255106 ], [ 10.914287337246323, 47.187881357930088 ], [ 10.914329996507995, 47.187875550093928 ], [ 10.914320615457898, 47.187860503341113 ], [ 10.914241080501766, 47.187899610323889 ], [ 10.914241233292746, 47.18789963554611 ] ] } },
{ "type": "Feature", "properties": { "uid": 48, "name": "Venter Eisfall", "dem_source": "DOM_Oetztal_50cm", "line_status": "ok", "route_confidence": 0.60051329550685772, "support_score": 68.963358804755785, "collapse_risk_score": 31.036641195244215 }, "geometry": { "type": "LineString", "coordinates": [ [ 10.912893870931432, 46.856139709285486 ], [ 10.912895324910414, 46.856140692153112 ], [ 10.912971686938864, 46.856211308537297 ], [ 10.913004474253041, 46.856189512459174 ], [ 10.913020475270338, 46.856202659328808 ], [ 10.912988930136798, 46.856173829749267 ], [ 10.913025331209317, 46.856170530689482 ] ] } }
]
}
